start=new Date('2023-04-08T00:00:00.000Z').valueOf();
sats=[{"BSTAR":"0.00178590000000","TLE_LINE2":"2 45399  53.0545 247.4462 0001307  52.2032 307.9075 15.06420409169107","ARG_OF_PERICENTER":"52.2032","TIME_SYSTEM":"UTC","OBJECT_TYPE":"PAYLOAD","PERIOD":"95.591","MEAN_MOTION":"15.06420409","REF_FRAME":"TEME","REV_AT_EPOCH":"16910","TLE_LINE1":"1 45399U 20019AR  23097.49376257  .00026434  00000-0  17859-2 0  9997","ELEMENT_SET_NO":"999","EPHEMERIS_TYPE":"0","MEAN_MOTION_DDOT":"0.0000000000000","APOAPSIS":"548.056","FILE":"3882626","MEAN_MOTION_DOT":"0.00026434","EPOCH":"2023-04-07T11:51:01.086048","NORAD_CAT_ID":"45399","MEAN_ANOMALY":"307.9075","PERIAPSIS":"546.246","INCLINATION":"53.0545","GP_ID":"229681486","CENTER_NAME":"EARTH","RCS_SIZE":"LARGE","SITE":"AFETR","DECAY_DATE":null,"ECCENTRICITY":"0.00013070","SEMIMAJOR_AXIS":"6925.286","OBJECT_ID":"2020-019AR","COUNTRY_CODE":"US","LAUNCH_DATE":"2020-03-18","CLASSIFICATION_TYPE":"U","RA_OF_ASC_NODE":"247.4462","MEAN_ELEMENT_THEORY":"SGP4","OBJECT_NAME":"STARLINK-1255"},{"RCS_SIZE":"LARGE","SITE":"AFETR","DECAY_DATE":null,"ECCENTRICITY":"0.00019440","SEMIMAJOR_AXIS":"6917.319","OBJECT_ID":"2020-019AS","COUNTRY_CODE":"US","LAUNCH_DATE":"2020-03-18","CLASSIFICATION_TYPE":"U","RA_OF_ASC_NODE":"247.4853","MEAN_ELEMENT_THEORY":"SGP4","OBJECT_NAME":"STARLINK-1213","MEAN_MOTION_DDOT":"0.0000000000000","APOAPSIS":"540.529","FILE":"3882626","MEAN_MOTION_DOT":"0.00029517","EPOCH":"2023-04-07T09:45:54.304128","NORAD_CAT_ID":"45400","PERIAPSIS":"537.839","INCLINATION":"53.0551","MEAN_ANOMALY":"38.6430","GP_ID":"229679740","CENTER_NAME":"EARTH","TIME_SYSTEM":"UTC","OBJECT_TYPE":"PAYLOAD","PERIOD":"95.426","MEAN_MOTION":"15.09023667","REF_FRAME":"TEME","REV_AT_EPOCH":"16902","TLE_LINE1":"1 45400U 20019AS  23097.40687852  .00029517  00000-0  18554-2 0  9995","ELEMENT_SET_NO":"999","EPHEMERIS_TYPE":"0","BSTAR":"0.00185540000000","TLE_LINE2":"2 45400  53.0551 247.4853 0001944 321.4421  38.6430 15.09023667169023","ARG_OF_PERICENTER":"321.4421"},{"BSTAR":"0.00175640000000","ARG_OF_PERICENTER":"44.2757","TLE_LINE2":"2 45401  53.0532 246.5049 0001337  44.2757 315.8339 15.06436761169138","TIME_SYSTEM":"UTC","OBJECT_TYPE":"PAYLOAD","REF_FRAME":"TEME","MEAN_MOTION":"15.06436761","PERIOD":"95.590","TLE_LINE1":"1 45401U 20019AT  23097.70385804  .00026003  00000-0  17564-2 0  9998","EPHEMERIS_TYPE":"0","ELEMENT_SET_NO":"999","REV_AT_EPOCH":"16913","APOAPSIS":"548.027","MEAN_MOTION_DDOT":"0.0000000000000","MEAN_MOTION_DOT":"0.00026003","FILE":"3882795","EPOCH":"2023-04-07T16:53:33.334656","NORAD_CAT_ID":"45401","PERIAPSIS":"546.175","INCLINATION":"53.0532","MEAN_ANOMALY":"315.8339","GP_ID":"229691561","CENTER_NAME":"EARTH","RCS_SIZE":"LARGE","ECCENTRICITY":"0.00013370","DECAY_DATE":null,"SITE":"AFETR","OBJECT_ID":"2020-019AT","SEMIMAJOR_AXIS":"6925.236","LAUNCH_DATE":"2020-03-18","COUNTRY_CODE":"US","RA_OF_ASC_NODE":"246.5049","CLASSIFICATION_TYPE":"U","MEAN_ELEMENT_THEORY":"SGP4","OBJECT_NAME":"STARLINK-1256"},{"PERIAPSIS":"546.158","MEAN_ANOMALY":"261.5028","INCLINATION":"53.0524","GP_ID":"229681240","CENTER_NAME":"EARTH","FILE":"3882626","MEAN_MOTION_DOT":"0.00022343","MEAN_MOTION_DDOT":"0.0000000000000","APOAPSIS":"548.234","NORAD_CAT_ID":"45402","EPOCH":"2023-04-07T10:24:43.943616","CLASSIFICATION_TYPE":"U","RA_OF_ASC_NODE":"247.7062","OBJECT_NAME":"STARLINK-1257","MEAN_ELEMENT_THEORY":"SGP4","SITE":"AFETR","DECAY_DATE":null,"ECCENTRICITY":"0.00014990","RCS_SIZE":"LARGE","COUNTRY_CODE":"US","LAUNCH_DATE":"2020-03-18","SEMIMAJOR_AXIS":"6925.331","OBJECT_ID":"2020-019AU","TLE_LINE2":"2 45402  53.0524 247.7062 0001499  98.6131 261.5028 15.06405816169102","ARG_OF_PERICENTER":"98.6131","BSTAR":"0.00151390000000","PERIOD":"95.592","MEAN_MOTION":"15.06405816","REF_FRAME":"TEME","REV_AT_EPOCH":"16910","TLE_LINE1":"1 45402U 20019AU  23097.43384194  .00022343  00000-0  15139-2 0  9999","ELEMENT_SET_NO":"999","EPHEMERIS_TYPE":"0","TIME_SYSTEM":"UTC","OBJECT_TYPE":"PAYLOAD"},{"ARG_OF_PERICENTER":"98.7964","TLE_LINE2":"2 45403  53.0543 247.6447 0000947  98.7964 261.3132 15.06425297169099","BSTAR":"0.00174780000000","EPHEMERIS_TYPE":"0","TLE_LINE1":"1 45403U 20019AV  23097.44952613  .00025866  00000-0  17478-2 0  9999","ELEMENT_SET_NO":"999","REV_AT_EPOCH":"16909","MEAN_MOTION":"15.06425297","REF_FRAME":"TEME","PERIOD":"95.591","OBJECT_TYPE":"PAYLOAD","TIME_SYSTEM":"UTC","CENTER_NAME":"EARTH","GP_ID":"229680987","PERIAPSIS":"546.480","INCLINATION":"53.0543","MEAN_ANOMALY":"261.3132","NORAD_CAT_ID":"45403","EPOCH":"2023-04-07T10:47:19.057632","MEAN_MOTION_DOT":"0.00025866","FILE":"3882626","APOAPSIS":"547.792","MEAN_MOTION_DDOT":"0.0000000000000","OBJECT_NAME":"STARLINK-1259","MEAN_ELEMENT_THEORY":"SGP4","RA_OF_ASC_NODE":"247.6447","CLASSIFICATION_TYPE":"U","LAUNCH_DATE":"2020-03-18","COUNTRY_CODE":"US","OBJECT_ID":"2020-019AV","SEMIMAJOR_AXIS":"6925.271","DECAY_DATE":null,"ECCENTRICITY":"0.00009470","SITE":"AFETR","RCS_SIZE":"LARGE"},{"MEAN_MOTION_DDOT":"0.0000000000000","APOAPSIS":"547.686","FILE":"3882626","MEAN_MOTION_DOT":"0.00024898","EPOCH":"2023-04-07T03:05:33.903168","NORAD_CAT_ID":"45404","INCLINATION":"53.0535","PERIAPSIS":"546.740","MEAN_ANOMALY":"302.0665","CENTER_NAME":"EARTH","GP_ID":"229680241","RCS_SIZE":"LARGE","SITE":"AFETR","DECAY_DATE":null,"ECCENTRICITY":"0.00006830","SEMIMAJOR_AXIS":"6925.348","OBJECT_ID":"2020-019AW","COUNTRY_CODE":"US","LAUNCH_DATE":"2020-03-18","CLASSIFICATION_TYPE":"U","RA_OF_ASC_NODE":"249.0800","MEAN_ELEMENT_THEORY":"SGP4","OBJECT_NAME":"STARLINK-1260","BSTAR":"0.00168450000000","TLE_LINE2":"2 45404  53.0535 249.0800 0000683  58.0390 302.0665 15.06400257168956","ARG_OF_PERICENTER":"58.0390","TIME_SYSTEM":"UTC","OBJECT_TYPE":"PAYLOAD","PERIOD":"95.592","REF_FRAME":"TEME","MEAN_MOTION":"15.06400257","REV_AT_EPOCH":"16895","EPHEMERIS_TYPE":"0","TLE_LINE1":"1 45404U 20019AW  23097.12886462  .00024898  00000-0  16845-2 0  9994","ELEMENT_SET_NO":"999"},{"EPOCH":"2023-04-07T18:39:42.969024","NORAD_CAT_ID":"45405","MEAN_MOTION_DDOT":"0.0000000000000","APOAPSIS":"548.157","FILE":"3882796","MEAN_MOTION_DOT":"0.00022676","CENTER_NAME":"EARTH","GP_ID":"229691567","PERIAPSIS":"546.086","MEAN_ANOMALY":"278.7461","INCLINATION":"53.0533","SEMIMAJOR_AXIS":"6925.257","OBJECT_ID":"2020-019AX","COUNTRY_CODE":"US","LAUNCH_DATE":"2020-03-18","RCS_SIZE":"LARGE","DECAY_DATE":null,"ECCENTRICITY":"0.00014950","SITE":"AFETR","MEAN_ELEMENT_THEORY":"SGP4","OBJECT_NAME":"STARLINK-1263","CLASSIFICATION_TYPE":"U","RA_OF_ASC_NODE":"246.1715","BSTAR":"0.00153510000000","TLE_LINE2":"2 45405  53.0533 246.1715 0001495  81.3697 278.7461 15.06429997169056","ARG_OF_PERICENTER":"81.3697","OBJECT_TYPE":"PAYLOAD","TIME_SYSTEM":"UTC","REV_AT_EPOCH":"16905","TLE_LINE1":"1 45405U 20019AX  23097.77758066  .00022676  00000-0  15351-2 0  9997","EPHEMERIS_TYPE":"0","ELEMENT_SET_NO":"999","PERIOD":"95.590","MEAN_MOTION":"15.06429997","REF_FRAME":"TEME"},{"RCS_SIZE":"LARGE","DECAY_DATE":null,"SITE":"AFETR","ECCENTRICITY":"0.00010770","OBJECT_ID":"2020-019AY","SEMIMAJOR_AXIS":"6925.319","LAUNCH_DATE":"2020-03-18","COUNTRY_CODE":"US","RA_OF_ASC_NODE":"247.6290","CLASSIFICATION_TYPE":"U","MEAN_ELEMENT_THEORY":"SGP4","OBJECT_NAME":"STARLINK-1265","APOAPSIS":"547.930","MEAN_MOTION_DDOT":"0.0000000000000","MEAN_MOTION_DOT":"0.00024893","FILE":"3882626","EPOCH":"2023-04-07T10:52:38.100000","NORAD_CAT_ID":"45406","MEAN_ANOMALY":"287.5683","PERIAPSIS":"546.438","INCLINATION":"53.0548","GP_ID":"229680741","CENTER_NAME":"EARTH","TIME_SYSTEM":"UTC","OBJECT_TYPE":"PAYLOAD","MEAN_MOTION":"15.06409568","REF_FRAME":"TEME","PERIOD":"95.592","ELEMENT_SET_NO":"999","TLE_LINE1":"1 45406U 20019AY  23097.45321875  .00024893  00000-0  16837-2 0  9990","EPHEMERIS_TYPE":"0","REV_AT_EPOCH":"16900","BSTAR":"0.00168370000000","ARG_OF_PERICENTER":"72.5424","TLE_LINE2":"2 45406  53.0548 247.6290 0001077  72.5424 287.5683 15.06409568169004"},{"OBJECT_ID":"2020-019AZ","SEMIMAJOR_AXIS":"6925.318","LAUNCH_DATE":"2020-03-18","COUNTRY_CODE":"US","RCS_SIZE":"LARGE","SITE":"AFETR","DECAY_DATE":null,"ECCENTRICITY":"0.00008980","MEAN_ELEMENT_THEORY":"SGP4","OBJECT_NAME":"STARLINK-1275","RA_OF_ASC_NODE":"247.8636","CLASSIFICATION_TYPE":"U","EPOCH":"2023-04-07T09:36:56.313792","NORAD_CAT_ID":"45407","APOAPSIS":"547.805","MEAN_MOTION_DDOT":"0.0000000000000","MEAN_MOTION_DOT":"0.00002955","FILE":"3882626","CENTER_NAME":"EARTH","GP_ID":"229681487","INCLINATION":"53.0540","PERIAPSIS":"546.561","MEAN_ANOMALY":"269.8723","OBJECT_TYPE":"PAYLOAD","TIME_SYSTEM":"UTC","ELEMENT_SET_NO":"999","TLE_LINE1":"1 45407U 20019AZ  23097.40065178  .00002955  00000-0  21712-3 0  9991","EPHEMERIS_TYPE":"0","REV_AT_EPOCH":"16899","MEAN_MOTION":"15.06409991","REF_FRAME":"TEME","PERIOD":"95.592","BSTAR":"0.00021712000000","ARG_OF_PERICENTER":"90.2369","TLE_LINE2":"2 45407  53.0540 247.8636 0000898  90.2369 269.8723 15.06409991168993"},{"ARG_OF_PERICENTER":"70.3404","TLE_LINE2":"2 45408  53.0537 276.9123 0001233  70.3404 289.7718 15.06409153168611","BSTAR":"0.00092149000000","ELEMENT_SET_NO":"999","TLE_LINE1":"1 45408U 20019BA  23097.61263512  .00013474  00000-0  92149-3 0  9997","EPHEMERIS_TYPE":"0","REV_AT_EPOCH":"16861","REF_FRAME":"TEME","MEAN_MOTION":"15.06409153","PERIOD":"95.592","OBJECT_TYPE":"PAYLOAD","TIME_SYSTEM":"UTC","GP_ID":"229692420","CENTER_NAME":"EARTH","PERIAPSIS":"546.332","INCLINATION":"53.0537","MEAN_ANOMALY":"289.7718","NORAD_CAT_ID":"45408","EPOCH":"2023-04-07T14:42:11.674368","MEAN_MOTION_DOT":"0.00013474","FILE":"3882797","APOAPSIS":"548.039","MEAN_MOTION_DDOT":"0.0000000000000","OBJECT_NAME":"STARLINK-1278","MEAN_ELEMENT_THEORY":"SGP4","RA_OF_ASC_NODE":"276.9123","CLASSIFICATION_TYPE":"U","LAUNCH_DATE":"2020-03-18","COUNTRY_CODE":"US","OBJECT_ID":"2020-019BA","SEMIMAJOR_AXIS":"6925.321","DECAY_DATE":null,"SITE":"AFETR","ECCENTRICITY":"0.00012330","RCS_SIZE":"LARGE"}];
